H1 CPF 01  gfz 2022 05 18 00  6381 terrasarx 
H2 0702601  6201 31698    2022 05 18 00 59 42 2022 05 23 00 00 42   120 1 1  0 0 0
H9
10 0 59718  33102.000000  0   -4649239.375   5084547.613       379.791
10 0 59718  33222.000000  0   -4475680.112   5157974.676    902998.032
10 0 59718  33342.000000  0   -4223419.167   5137509.244   1789716.485
10 0 59718  33462.000000  0   -3898504.236   5022167.424   2644917.789
10 0 59718  33582.000000  0   -3508269.109   4812757.018   3453542.751
10 0 59718  33702.000000  0   -3061169.250   4511881.513   4201361.232
10 0 59718  33822.000000  0   -2566597.967   4123908.395   4875226.396
10 0 59718  33942.000000  0   -2034686.347   3654901.655   5463307.112
10 0 59718  34062.000000  0   -1476092.698   3112520.564   5955293.774
10 0 59718  34182.000000  0    -901786.146   2505887.854   6342574.294
10 0 59718  34302.000000  0    -322830.167   1845430.297   6618377.591
10 0 59718  34422.000000  0     249829.713   1142696.677   6777886.153
10 0 59718  34542.000000  0     805572.666    410153.615   6818315.053
10 0 59718  34662.000000  0    1334298.454   -339035.066   6738956.914
10 0 59718  34782.000000  0    1826610.039  -1091244.060   6541194.526
10 0 59718  34902.000000  0    2273980.397  -1832633.721   6228478.342
10 0 59718  35022.000000  0    2668901.241  -2549404.350   5806271.239
10 0 59718  35142.000000  0    3005011.556  -3228054.468   5281958.467
10 0 59718  35262.000000  0    3277202.391  -3855637.803   4664724.240
10 0 59718  35382.000000  0    3481697.394  -4420014.627   3965396.702
10 0 59718  35502.000000  0    3616106.978  -4910092.985   3196261.196
10 0 59718  35622.000000  0    3679453.792  -5316053.047   2370845.284
10 0 59718  35742.000000  0    3672169.534  -5629550.222   1503678.791
10 0 59718  35862.000000  0    3596062.438  -5843891.291    610033.047
10 0 59718  35982.000000  0    3454256.244  -5954178.032   -294354.394
10 0 59718  36102.000000  0    3251103.551  -5957417.892  -1193565.106
10 0 59718  36222.000000  0    2992071.877  -5852594.478  -2071790.015
10 0 59718  36342.000000  0    2683608.695  -5640698.557  -2913614.186
10 0 59718  36462.000000  0    2332988.300  -5324718.625  -3704293.660
10 0 59718  36582.000000  0    1948143.614  -4909590.721  -4430016.337
10 0 59718  36702.000000  0    1537488.262  -4402110.284  -5078140.297
10 0 59718  36822.000000  0    1109735.306  -3810810.289  -5637407.523
10 0 59718  36942.000000  0     673715.042  -3145808.501  -6098130.626
10 0 59718  37062.000000  0     238195.312  -2418627.521  -6452349.643
10 0 59718  37182.000000  0    -188291.357  -1641991.364  -6693958.270
10 0 59718  37302.000000  0    -597610.483   -829602.367  -6818798.936
10 0 59718  37422.000000  0    -982175.920      4098.121  -6824726.758
10 0 59718  37542.000000  0   -1335086.776    844181.154  -6711641.282
10 0 59718  37662.000000  0   -1650248.381   1675490.502  -6481487.741
10 0 59718  37782.000000  0   -1922475.066   2482909.222  -6138226.976
10 0 59718  37902.000000  0   -2147575.068   3251629.093  -5687776.051
10 0 59718  38022.000000  0   -2322415.399   3967420.094  -5137916.301
10 0 59718  38142.000000  0   -2444965.956   4616894.907  -4498170.812
10 0 59718  38262.000000  0   -2514321.954   5187764.197  -3779649.602
10 0 59718  38382.000000  0   -2530702.863   5669075.329  -2994864.626
10 0 59718  38502.000000  0   -2495428.003   6051430.962  -2157519.412
10 0 59718  38622.000000  0   -2410869.663   6327183.878  -1282272.810
10 0 59718  38742.000000  0   -2280383.688   6490598.536   -384480.784
10 0 59718  38862.000000  0   -2108219.851   6537978.692    520075.289
10 0 59718  38982.000000  0   -1899413.176   6467757.795   1415474.949
10 0 59718  39102.000000  0   -1659656.978   6280541.789   2285950.588
10 0 59718  39222.000000  0   -1395162.810   5979107.238   3116173.502
10 0 59718  39342.000000  0   -1112511.850   5568356.978   3891529.955
10 0 59718  39462.000000  0    -818501.603   5055234.841   4598383.277
10 0 59718  39582.000000  0    -519989.641   4448598.820   5224317.575
10 0 59718  39702.000000  0    -223738.401   3759057.219   5758352.879
10 0 59718  39822.000000  0      63732.301   2998775.664   6191134.438
10 0 59718  39942.000000  0     336284.286   2181254.100   6515091.332
10 0 59718  40062.000000  0     588288.552   1321082.427   6724562.691
10 0 59718  40182.000000  0     814738.952    433676.712   6815890.835
10 0 59718  40302.000000  0    1011349.773   -464996.922   6787480.275
10 0 59718  40422.000000  0    1174636.022  -1358708.519   6639825.108
10 0 59718  40542.000000  0    1301975.252  -2231257.052   6375501.285
10 0 59718  40662.000000  0    1391649.834  -3066764.266   5999125.153
10 0 59718  40782.000000  0    1442868.724  -3849965.901   5517277.245
10 0 59718  40902.000000  0    1455768.570  -4566493.103   4938391.696
10 0 59718  41022.000000  0    1431395.353  -5203140.127   4272615.209
10 0 59718  41142.000000  0    1371665.858  -5748116.638   3531635.295
10 0 59718  41262.000000  0    1279309.546  -6191276.172   2728476.237
10 0 59718  41382.000000  0    1157791.648  -6524313.486   1877269.492
10 0 59718  41502.000000  0    1011219.177  -6740929.549    993002.865
10 0 59718  41622.000000  0     844232.784  -6836958.518     91251.006
10 0 59718  41742.000000  0     661885.729  -6810453.223   -812108.207
10 0 59718  41862.000000  0     469513.129  -6661722.751  -1701184.184
10 0 59718  41982.000000  0     272597.319  -6393323.609  -2560361.049
10 0 59718  42102.000000  0      76631.621  -6010007.636  -3374577.346
10 0 59718  42222.000000  0    -113014.505  -5518627.429  -4129593.649
10 0 59718  42342.000000  0    -291225.568  -4928000.543  -4812241.614
10 0 59718  42462.000000  0    -453261.913  -4248738.402  -5410648.626
10 0 59718  42582.000000  0    -594870.791  -3493044.846  -5914436.664
10 0 59718  42702.000000  0    -712384.016  -2674488.464  -6314892.227
10 0 59718  42822.000000  0    -802800.842  -1807753.974  -6605105.776
10 0 59718  42942.000000  0    -863854.701   -908377.997  -6780079.589
10 0 59718  43062.000000  0    -894063.001      7526.552  -6836805.212
10 0 59718  43182.000000  0    -892758.615    923554.005  -6774308.595
10 0 59718  43302.000000  0    -860103.334   1823292.009  -6593664.527
10 0 59718  43422.000000  0    -797083.257   2690608.048  -6297980.091
10 0 59718  43542.000000  0    -705485.613   3509932.831  -5892348.322
10 0 59718  43662.000000  0    -587857.521   4266537.899  -5383769.883
10 0 59718  43782.000000  0    -447446.915   4946800.922  -4781043.154
10 0 59718  43902.000000  0    -288127.309   5538456.304  -4094623.541
10 0 59718  44022.000000  0    -114307.044   6030825.008  -3336451.521
10 0 59718  44142.000000  0      69175.525   6415017.910  -2519752.270
10 0 59718  44262.000000  0     257168.599   6684108.872  -1658809.386
10 0 59718  44382.000000  0     444332.731   6833272.486   -768715.417
10 0 59718  44502.000000  0     625273.187   6859881.706    134896.194
10 0 59718  44622.000000  0     794675.577   6763562.298   1036132.299
10 0 59718  44742.000000  0     947440.743   6546201.339   1919128.069
10 0 59718  44862.000000  0    1078814.155   6211910.152   2768334.639
10 0 59718  44982.000000  0    1184507.979   5766944.209   3568800.172
10 0 59718  45102.000000  0    1260813.138   5219579.611   4306439.777
10 0 59718  45222.000000  0    1304699.645   4579951.634   4968288.221
10 0 59718  45342.000000  0    1313897.635   3859853.762   5542730.068
10 0 59718  45462.000000  0    1286962.968   3072510.348   6019697.471
10 0 59718  45582.000000  0    1223323.827   2232327.204   6390842.310
10 0 59718  45702.000000  0    1123307.281   1354622.237   6649676.904
10 0 59718  45822.000000  0     988146.128    455342.173   6791681.136
10 0 59718  45942.000000  0     819965.659   -449227.177   6814375.403
10 0 59718  46062.000000  0     621750.376  -1342754.684   6717362.735
10 0 59718  46182.000000  0     397290.926  -2209158.844   6502335.742
10 0 59718  46302.000000  0     151111.896  -3032897.419   6173049.374
10 0 59718  46422.000000  0    -111617.734  -3799248.137   5735257.539
10 0 59718  46542.000000  0    -385189.370  -4494572.351   5196616.598
10 0 59718  46662.000000  0    -663473.604  -5106561.432   4566559.735
10 0 59718  46782.000000  0    -940052.533  -5624464.372   3856139.359
10 0 59718  46902.000000  0   -1208362.280  -6039287.064   3077835.418
10 0 59718  47022.000000  0   -1461841.790  -6343957.543   2245336.499
10 0 59718  47142.000000  0   -1694084.793  -6533456.181   1373297.857
10 0 59718  47262.000000  0   -1898992.588  -6604905.834    477077.608
10 0 59718  47382.000000  0   -2070920.671  -6557617.865   -427542.056
10 0 59718  47502.000000  0   -2204816.847  -6393094.300  -1324641.596
10 0 59718  47622.000000  0   -2296347.715  -6114986.007  -2198452.698
10 0 59718  47742.000000  0   -2342010.454  -5729008.232  -3033642.878
10 0 59718  47862.000000  0   -2339226.721  -5242815.021  -3815590.006
10 0 59718  47982.000000  0   -2286416.169  -4665836.353  -4530639.629
10 0 59718  48102.000000  0   -2183048.443  -4009084.207  -5166339.999
10 0 59718  48222.000000  0   -2029673.290  -3284933.228  -5711652.099
10 0 59718  48342.000000  0   -1827928.445  -2506880.742  -6157132.689
10 0 59718  48462.000000  0   -1580524.688  -1689290.344  -6495087.575
10 0 59718  48582.000000  0   -1291209.125   -847125.348  -6719692.569
10 0 59718  48702.000000  0    -964708.644      4322.651  -6827083.120
10 0 59718  48822.000000  0    -606653.381    849705.953  -6815412.980
10 0 59718  48942.000000  0    -223481.005   1673890.229  -6684882.268
10 0 59718  49062.000000  0     177675.217   2462218.208  -6437734.361
10 0 59718  49182.000000  0     589115.126   3200765.273  -6078223.625
10 0 59718  49302.000000  0    1002716.205   3876583.610  -5612549.865
10 0 59718  49422.000000  0    1410089.323   4477928.873  -5048761.001
10 0 59718  49542.000000  0    1802744.900   4994468.438  -4396626.221
99
